NEE-02 KRYSAOR          
1 39441U 13066AB  26068.37805844  .00004234  00000+0  46919-3 0  9992
2 39441  97.8816   8.3817 0067760  38.0821 322.5155 14.86160783661377
STARLINK-5594           
1 55742U 23028B   26068.86986295 -.00001335  00000+0 -10407-3 0  9991
2 55742  69.9991 244.1407 0002452 272.6317  87.4561 14.98332681166066
